[{"OBJECT_NAME":"NEXTSAT-2","OBJECT_ID":"2023-072A","EPOCH":"2026-03-09T23:10:55.073280","MEAN_MOTION":15.26393087,"ECCENTRICITY":0.00062633,"INCLINATION":97.5306,"RA_OF_ASC_NODE":265.1019,"ARG_OF_PERICENTER":22.4193,"MEAN_ANOMALY":337.7318,"EPHEMERIS_TYPE":0,"CLASSIFICATION_TYPE":"U","NORAD_CAT_ID":56743,"ELEMENT_SET_NO":999,"REV_AT_EPOCH":15445,"BSTAR":0.00056400163,"MEAN_MOTION_DOT":0.00014622,"MEAN_MOTION_DDOT":0},{"OBJECT_NAME":"YAOGAN-43 01C","OBJECT_ID":"2024-148C","EPOCH":"2026-03-09T10:59:35.487168","MEAN_MOTION":15.23248363,"ECCENTRICITY":0.00048948,"INCLINATION":35.0004,"RA_OF_ASC_NODE":69.8276,"ARG_OF_PERICENTER":10.3083,"MEAN_ANOMALY":349.7732,"EPHEMERIS_TYPE":0,"CLASSIFICATION_TYPE":"U","NORAD_CAT_ID":60460,"ELEMENT_SET_NO":999,"REV_AT_EPOCH":8692,"BSTAR":0.00057210581,"MEAN_MOTION_DOT":0.00013877,"MEAN_MOTION_DDOT":0}]
